{"fetched_at":"2026-03-29T16:36:15Z","count":15609,"tles":[{"name":"ORBCOMM FM117","line1":"1 41188U 15081K   26087.70985428  .00000828  00000+0  21172-3 0  9996","line2":"2 41188  47.0008 201.3189 0003585 205.3094 154.7617 14.58766807548371","category":"Other"}]}